{
    "links": {
        "self": "http://www.neowsapp.com/rest/v1/neo/3878585?api_key=iIulBulltgU6a56xZRHN4H3l9WmuAYTsLGpBGhQ2"
    },
    "id": "3878585",
    "neo_reference_id": "3878585",
    "name": "(2019 TS2)",
    "designation": "2019 TS2",
    "nasa_jpl_url": "http://ssd.jpl.nasa.gov/sbdb.cgi?sstr=3878585",
    "absolute_magnitude_h": 25.6,
    "estimated_diameter": {
        "kilometers": {
            "estimated_diameter_min": 0.0201629919,
            "estimated_diameter_max": 0.0450858206
        },
        "meters": {
            "estimated_diameter_min": 20.1629919443,
            "estimated_diameter_max": 45.0858206172
        },
        "miles": {
            "estimated_diameter_min": 0.0125286985,
            "estimated_diameter_max": 0.0280150214
        },
        "feet": {
            "estimated_diameter_min": 66.1515504905,
            "estimated_diameter_max": 147.9193637137
        }
    },
    "is_potentially_hazardous_asteroid": false,
    "close_approach_data": [
        {
            "close_approach_date": "1935-11-09",
            "close_approach_date_full": "1935-Nov-09 23:27",
            "epoch_date_close_approach": -1077496380000,
            "relative_velocity": {
                "kilometers_per_second": "11.7802202009",
                "kilometers_per_hour": "42408.7927233509",
                "miles_per_hour": "26351.1745674621"
            },
            "miss_distance": {
                "astronomical": "0.3088081366",
                "lunar": "120.1263651374",
                "kilometers": "46197039.474029042",
                "miles": "28705509.2370110996"
            },
            "orbiting_body": "Earth"
        },
        {
            "close_approach_date": "2019-10-02",
            "close_approach_date_full": "2019-Oct-02 12:25",
            "epoch_date_close_approach": 1570019100000,
            "relative_velocity": {
                "kilometers_per_second": "6.5064483238",
                "kilometers_per_hour": "23423.2139657123",
                "miles_per_hour": "14554.2742555283"
            },
            "miss_distance": {
                "astronomical": "0.0695992393",
                "lunar": "27.0741040877",
                "kilometers": "10411897.952900291",
                "miles": "6469653.3861183758"
            },
            "orbiting_body": "Earth"
        },
        {
            "close_approach_date": "2125-11-18",
            "close_approach_date_full": "2125-Nov-18 16:41",
            "epoch_date_close_approach": 4919157660000,
            "relative_velocity": {
                "kilometers_per_second": "13.9195092523",
                "kilometers_per_hour": "50110.2333084035",
                "miles_per_hour": "31136.5502465466"
            },
            "miss_distance": {
                "astronomical": "0.3801266196",
                "lunar": "147.8692550244",
                "kilometers": "56866132.622460252",
                "miles": "35334976.3069733976"
            },
            "orbiting_body": "Earth"
        }
    ],
    "orbital_data": {
        "orbit_id": "2",
        "orbit_determination_date": "2019-11-17 04:52:07",
        "first_observation_date": "2019-10-05",
        "last_observation_date": "2019-10-31",
        "data_arc_in_days": 26,
        "observations_used": 25,
        "orbit_uncertainty": "8",
        "minimum_orbit_intersection": ".0694222",
        "jupiter_tisserand_invariant": "4.113",
        "epoch_osculation": "2458783.5",
        "eccentricity": ".3778360485001472",
        "semi_major_axis": "1.696136643184377",
        "inclination": "8.661286338361242",
        "ascending_node_longitude": "180.0386310737351",
        "orbital_period": "806.8442009580635",
        "perihelion_distance": "1.055275076207288",
        "perihelion_argument": "204.589715596429",
        "aphelion_distance": "2.336998210161466",
        "perihelion_time": "2458773.593017024512",
        "mean_anomaly": "4.420325345265825",
        "mean_motion": ".4461827941162972",
        "equinox": "J2000",
        "orbit_class": {
            "orbit_class_type": "AMO",
            "orbit_class_description": "Near-Earth asteroid orbits similar to that of 1221 Amor",
            "orbit_class_range": "1.017 AU < q (perihelion) < 1.3 AU"
        }
    },
    "is_sentry_object": false
}